NORAD_CAT_ID,OBJECT_NAME,OBJECT_TYPE,EPOCH,MEAN_MOTION,ECCENTRICITY,INCLINATION,RA_OF_ASC_NODE,ARG_OF_PERICENTER,MEAN_ANOMALY,BSTAR,MEAN_MOTION_DOT,MEAN_MOTION_DDOT,TLE_LINE0,TLE_LINE1,TLE_LINE2,SEMIMAJOR_AXIS,PERIOD,APOGEE,PERIGEE,DECAYED
50192.0,STARLINK-3259,PAYLOAD,2023-02-27 18:08:13,15.08935308,0.0001114,53.213,163.8515,109.2218,250.8894,0.0071885,0.00116315,0.0,0 STARLINK-3259,1 50192U 21125AN  23058.75571585  .00116315  00000-0  71885-2 0  9997,2 50192  53.2130 163.8515 0001114 109.2218 250.8894 15.08935308 66686,6917.589,95.432,540.225,538.683,0.0
50192.0,STARLINK-3259,PAYLOAD,2023-02-28 00:29:47,15.08837032,0.0001963,53.215,162.663,77.6987,282.4225,0.00076441,0.00011898,0.0,0 STARLINK-3259,1 50192U 21125AN  23059.02069007  .00011898  00000-0  76441-3 0  9993,2 50192  53.2150 162.6630 0001963  77.6987 282.4225 15.08837032 66725,6917.889,95.438,541.112,538.396,0.0
50192.0,STARLINK-3259,PAYLOAD,2023-02-28 13:12:52,15.08834899,0.0001147,53.215,160.2826,88.7812,271.3311,0.0015607,0.00024634,0.0,0 STARLINK-3259,1 50192U 21125AN  23059.55061314  .00024634  00000-0  15607-2 0  9992,2 50192  53.2150 160.2826 0001147  88.7812 271.3311 15.08834899 69892,6917.896,95.438,540.554,538.967,0.0
50192.0,STARLINK-3259,PAYLOAD,2023-02-28 17:59:02,15.08842776,0.0001287,53.2154,159.3892,99.4685,260.6453,0.0017968,0.00028426,0.0,0 STARLINK-3259,1 50192U 21125AN  23059.74933366  .00028426  00000-0  17968-2 0  9993,2 50192  53.2154 159.3892 0001287  99.4685 260.6453 15.08842776 69925,6917.872,95.437,540.627,538.847,0.0
50192.0,STARLINK-3259,PAYLOAD,2023-03-01 11:28:17,15.08842734,0.0001009,53.2144,156.1206,88.2607,271.85,0.0024294,0.00038591,0.0,0 STARLINK-3259,1 50192U 21125AN  23060.47798565  .00038591  00000-0  24294-2 0  9999,2 50192  53.2144 156.1206 0001009  88.2607 271.8500 15.08842734 66940,6917.872,95.437,540.435,539.039,0.0
50192.0,STARLINK-3259,PAYLOAD,2023-03-01 17:49:50,15.08840416,0.0001237,53.215,154.9305,86.4172,273.6962,0.0015105,0.00023834,0.0,0 STARLINK-3259,1 50192U 21125AN  23060.74294739  .00023834  00000-0  15105-2 0  9998,2 50192  53.2150 154.9305 0001237  86.4172 273.6962 15.08840416 66984,6917.879,95.438,540.6,538.888,0.0
50192.0,STARLINK-3259,PAYLOAD,2023-03-02 16:05:13,15.08881684,0.0001186,53.2143,150.77,84.3456,275.7671,0.002009,0.00031867,0.0,0 STARLINK-3259,1 50192U 21125AN  23061.67029878  .00031867  00000-0  20090-2 0  9995,2 50192  53.2143 150.7700 0001186  84.3456 275.7671 15.08881684 70217,6917.753,95.435,540.438,538.798,0.0
50192.0,STARLINK-3259,PAYLOAD,2023-03-03 09:34:27,15.08874468,0.0001221,53.2151,147.4972,115.9961,244.1157,0.0018994,0.00030099,0.0,0 STARLINK-3259,1 50192U 21125AN  23062.39893228  .00030099  00000-0  18994-2 0  9999,2 50192  53.2151 147.4972 0001221 115.9961 244.1157 15.08874468 67231,6917.775,95.435,540.485,538.795,0.0
50192.0,STARLINK-3259,PAYLOAD,2023-03-03 11:09:50,15.08881097,0.0001182,53.2147,147.201,110.9703,249.1416,0.0022694,0.00036055,0.0,0 STARLINK-3259,1 50192U 21125AN  23062.46517084  .00036055  00000-0  22694-2 0  9990,2 50192  53.2147 147.2010 0001182 110.9703 249.1416 15.08881097 70336,6917.755,95.435,540.437,538.802,0.0
50192.0,STARLINK-3259,PAYLOAD,2023-03-03 15:55:59,15.08899324,0.0001148,53.2148,146.3083,108.5004,251.6113,0.002662,0.00042402,0.0,0 STARLINK-3259,1 50192U 21125AN  23062.66388404  .00042402  00000-0  26620-2 0  9990,2 50192  53.2148 146.3083 0001148 108.5004 251.6113 15.08899324 70363,6917.699,95.434,540.358,538.77,0.0
50192.0,STARLINK-3259,PAYLOAD,2023-03-04 11:00:37,15.08864994,0.0001431,53.2144,142.7395,128.6945,231.4176,0.0024166,0.00038409,0.0,0 STARLINK-3259,1 50192U 21125AN  23063.45876479  .00038409  00000-0  24166-2 0  9997,2 50192  53.2144 142.7395 0001431 128.6945 231.4176 15.08864994 70480,6917.804,95.436,540.659,538.679,0.0
50192.0,STARLINK-3259,PAYLOAD,2023-03-04 14:11:23,15.08861013,0.0001398,53.2144,142.1449,119.5633,240.5499,0.0017815,0.00028195,0.0,0 STARLINK-3259,1 50192U 21125AN  23063.59124425  .00028195  00000-0  17815-2 0  9993,2 50192  53.2144 142.1449 0001398 119.5633 240.5499 15.08861013 67416,6917.816,95.436,540.648,538.714,0.0
50192.0,STARLINK-3259,PAYLOAD,2023-03-04 22:08:19,15.08829509,0.0001647,53.2144,140.6582,95.3618,264.7562,0.00042101,6.417e-05,0.0,0 STARLINK-3259,1 50192U 21125AN  23063.92245262  .00006417  00000-0  42101-3 0  9993,2 50192  53.2144 140.6582 0001647  95.3618 264.7562 15.08829509 67466,6917.912,95.438,540.917,538.638,0.0
50192.0,STARLINK-3259,PAYLOAD,2023-03-05 21:59:07,15.08861191,0.0001197,53.215,136.1973,77.2989,282.8137,0.0027253,0.00043378,0.0,0 STARLINK-3259,1 50192U 21125AN  23064.91605753  .00043378  00000-0  27253-2 0  9995,2 50192  53.2150 136.1973 0001197  77.2989 282.8137 15.08861191 70700,6917.816,95.436,540.509,538.853,0.0
50192.0,STARLINK-3259,PAYLOAD,2023-03-06 10:42:12,15.08869497,0.0001523,53.2146,133.8182,84.1752,275.9414,0.002845,0.00045318,0.0,0 STARLINK-3259,1 50192U 21125AN  23065.44597541  .00045318  00000-0  28450-2 0  9995,2 50192  53.2146 133.8182 0001523  84.1752 275.9414 15.08869497 67691,6917.79,95.436,540.709,538.602,0.0
50192.0,STARLINK-3259,PAYLOAD,2023-03-06 12:17:35,15.08868268,0.0001582,53.2141,133.521,83.2874,276.8298,0.0021102,0.00033482,0.0,0 STARLINK-3259,1 50192U 21125AN  23065.51221422  .00033482  00000-0  21102-2 0  9991,2 50192  53.2141 133.5210 0001582  83.2874 276.8298 15.08868268 67702,6917.794,95.436,540.753,538.565,0.0
50192.0,STARLINK-3259,PAYLOAD,2023-03-06 21:49:54,15.08859301,0.0001549,53.215,131.7368,90.1074,270.0096,0.0011695,0.00018383,0.0,0 STARLINK-3259,1 50192U 21125AN  23065.90965367  .00018383  00000-0  11695-2 0  9996,2 50192  53.2150 131.7368 0001549  90.1074 270.0096 15.08859301 70858,6917.821,95.436,540.758,538.615,0.0
50192.0,STARLINK-3259,PAYLOAD,2023-03-07 04:11:26,15.08838581,0.0001356,53.2149,130.5466,119.3174,240.7954,0.00043954,6.714e-05,0.0,0 STARLINK-3259,1 50192U 21125AN  23066.17461406  .00006714  00000-0  43954-3 0  9990,2 50192  53.2149 130.5466 0001356 119.3174 240.7954 15.08838581 67808,6917.885,95.438,540.688,538.812,0.0
50192.0,STARLINK-3259,PAYLOAD,2023-03-07 15:19:08,15.08856656,0.0001502,53.2134,128.4643,109.4005,250.715,0.0022441,0.00035624,0.0,0 STARLINK-3259,1 50192U 21125AN  23066.63829701  .00035624  00000-0  22441-2 0  9996,2 50192  53.2134 128.4643 0001502 109.4005 250.7150 15.08856656 67870,6917.829,95.437,540.734,538.655,0.0
50192.0,STARLINK-3259,PAYLOAD,2023-03-07 21:40:41,15.08832127,0.0001554,53.2147,127.2767,83.7882,276.3287,0.00063237,9.788e-05,0.0,0 STARLINK-3259,1 50192U 21125AN  23066.90326351  .00009788  00000-0  63237-3 0  9990,2 50192  53.2147 127.2767 0001554  83.7882 276.3287 15.08832127 71004,6917.904,95.438,540.844,538.694,0.0
50192.0,STARLINK-3259,PAYLOAD,2023-03-08 04:02:14,15.08842472,0.0001492,53.2147,126.0868,90.2995,269.8168,0.001639,0.00025895,0.0,0 STARLINK-3259,1 50192U 21125AN  23067.16822482  .00025895  00000-0  16390-2 0  9999,2 50192  53.2147 126.0868 0001492  90.2995 269.8168 15.08842472 67950,6917.873,95.437,540.77,538.706,0.0
50192.0,STARLINK-3259,PAYLOAD,2023-03-08 15:09:56,15.08871419,0.0001257,53.2145,124.0042,91.2354,268.8782,0.0028677,0.00045687,0.0,0 STARLINK-3259,1 50192U 21125AN  23067.63190212  .00045687  00000-0  28677-2 0  9992,2 50192  53.2145 124.0042 0001257  91.2354 268.8782 15.08871419 71116,6917.784,95.436,540.519,538.78,0.0
50192.0,STARLINK-3259,PAYLOAD,2023-03-09 07:03:47,15.0886688,0.0001164,53.2137,121.0303,100.3727,259.7397,0.0021385,0.00033936,0.0,0 STARLINK-3259,1 50192U 21125AN  23068.29430113  .00033936  00000-0  21385-2 0  9995,2 50192  53.2137 121.0303 0001164 100.3727 259.7397 15.08866880 68121,6917.798,95.436,540.468,538.858,0.0
50192.0,STARLINK-3259,PAYLOAD,2023-03-09 19:46:52,15.08870318,0.0001859,53.2145,118.6507,60.7174,299.4004,0.0025148,0.00039996,0.0,0 STARLINK-3259,1 50192U 21125AN  23068.82421948  .00039996  00000-0  25148-2 0  9993,2 50192  53.2145 118.6507 0001859  60.7174 299.4004 15.08870318 71293,6917.788,95.436,540.939,538.367,0.0
50192.0,STARLINK-3259,PAYLOAD,2023-03-10 10:05:21,15.08839594,9.51e-05,53.214,115.9739,61.4938,298.6149,0.0022621,0.00035897,0.0,0 STARLINK-3259,1 50192U 21125AN  23069.42038353  .00035897  00000-0  22621-2 0  9993,2 50192  53.2140 115.9739 0000951  61.4938 298.6149 15.08839594 68291,6917.882,95.438,540.405,539.089,0.0
50192.0,STARLINK-3259,PAYLOAD,2023-03-10 19:37:40,15.08838325,0.0001012,53.2139,114.1916,71.5659,288.5443,0.0011035,0.00017317,0.0,0 STARLINK-3259,1 50192U 21125AN  23069.81782783  .00017317  00000-0  11035-2 0  9993,2 50192  53.2139 114.1916 0001012  71.5659 288.5443 15.08838325 71445,6917.886,95.438,540.451,539.05,0.0
50192.0,STARLINK-3259,PAYLOAD,2023-03-11 06:45:22,15.0884065,0.0001056,53.2141,112.1112,79.6603,280.4508,0.00097366,0.00015242,0.0,0 STARLINK-3259,1 50192U 21125AN  23070.28151011  .00015242  00000-0  97366-3 0  9997,2 50192  53.2141 112.1112 0001056  79.6603 280.4508 15.08840650 68421,6917.878,95.438,540.474,539.013,0.0
50192.0,STARLINK-3259,PAYLOAD,2023-03-11 13:06:54,15.08856735,0.0001173,53.2147,110.9226,89.5608,270.5519,0.0010938,0.00017171,0.0,0 STARLINK-3259,1 50192U 21125AN  23070.54646674  .00017171  00000-0  10938-2 0  9992,2 50192  53.2147 110.9226 0001173  89.5608 270.5519 15.08856735 71555,6917.829,95.436,540.506,538.883,0.0
50192.0,STARLINK-3259,PAYLOAD,2023-03-12 01:50:00,15.08839216,0.0001128,53.2129,108.5421,90.4972,269.6149,0.00027737,4.129e-05,0.0,0 STARLINK-3259,1 50192U 21125AN  23071.07638958  .00004129  00000-0  27737-3 0  9992,2 50192  53.2129 108.5421 0001128  90.4972 269.6149 15.08839216 68548,6917.883,95.438,540.528,538.967,0.0
50192.0,STARLINK-3259,PAYLOAD,2023-03-12 09:46:55,15.0884616,0.000118,53.2135,107.0552,79.0036,281.1089,0.00037829,5.739e-05,0.0,0 STARLINK-3259,1 50192U 21125AN  23071.40758924  .00005739  00000-0  37829-3 0  9996,2 50192  53.2135 107.0552 0001180  79.0036 281.1089 15.08846160 71683,6917.862,95.437,540.543,538.91,0.0
